start=new Date('2022-11-21T00:00:00.000Z').valueOf();
sats=[{"NORAD_CAT_ID":"52540","LAUNCH_DATE":"2022-05-13","BSTAR":"0.00017613000000","ELEMENT_SET_NO":"999","TLE_LINE2":"2 52540  53.2161 138.1856 0002343  43.7991 316.3186 15.08833467 29546","INCLINATION":"53.2161","REF_FRAME":"TEME","APOAPSIS":"541.386","PERIAPSIS":"538.144","GP_ID":"218361731","TLE_LINE1":"1 52540U 22051H   22324.77742322  .00002515  00000-0  17613-3 0  9997","CLASSIFICATION_TYPE":"U","DECAY_DATE":null,"SITE":"AFWTR","MEAN_MOTION":"15.08833467","RCS_SIZE":"LARGE","MEAN_ANOMALY":"316.3186","PERIOD":"95.438","MEAN_MOTION_DOT":"0.00002515","MEAN_MOTION_DDOT":"0.0000000000000","EPOCH":"2022-11-20T18:39:29.366208","OBJECT_NAME":"STARLINK-3940","SEMIMAJOR_AXIS":"6917.900","CENTER_NAME":"EARTH","OBJECT_TYPE":"PAYLOAD","MEAN_ELEMENT_THEORY":"SGP4","EPHEMERIS_TYPE":"0","ARG_OF_PERICENTER":"43.7991","OBJECT_ID":"2022-051H","RA_OF_ASC_NODE":"138.1856","REV_AT_EPOCH":"2954","ECCENTRICITY":"0.00023430","TIME_SYSTEM":"UTC","FILE":"3665715","COUNTRY_CODE":"US"},{"OBJECT_TYPE":"PAYLOAD","MEAN_ELEMENT_THEORY":"SGP4","EPOCH":"2022-11-20T19:29:10.164480","MEAN_MOTION_DDOT":"0.0000000000000","MEAN_MOTION_DOT":"0.00001564","SEMIMAJOR_AXIS":"6917.896","OBJECT_NAME":"STARLINK-3845","PERIOD":"95.438","CENTER_NAME":"EARTH","TIME_SYSTEM":"UTC","REV_AT_EPOCH":"2947","ECCENTRICITY":"0.00020740","COUNTRY_CODE":"US","FILE":"3665715","OBJECT_ID":"2022-051J","ARG_OF_PERICENTER":"52.5647","EPHEMERIS_TYPE":"0","RA_OF_ASC_NODE":"143.0228","INCLINATION":"53.2148","APOAPSIS":"541.196","REF_FRAME":"TEME","LAUNCH_DATE":"2022-05-13","NORAD_CAT_ID":"52541","BSTAR":"0.00011639000000","TLE_LINE2":"2 52541  53.2148 143.0228 0002074  52.5647 307.5534 15.08834876 29473","ELEMENT_SET_NO":"999","SITE":"AFWTR","MEAN_MOTION":"15.08834876","DECAY_DATE":null,"RCS_SIZE":"LARGE","MEAN_ANOMALY":"307.5534","PERIAPSIS":"538.326","CLASSIFICATION_TYPE":"U","TLE_LINE1":"1 52541U 22051J   22324.81192320  .00001564  00000-0  11639-3 0  9995","GP_ID":"218361482"},{"RCS_SIZE":"LARGE","MEAN_ANOMALY":"316.2750","DECAY_DATE":null,"SITE":"AFWTR","MEAN_MOTION":"15.08842282","GP_ID":"218362733","TLE_LINE1":"1 52542U 22051K   22324.77373902 -.00000016  00000-0  17096-4 0  9994","CLASSIFICATION_TYPE":"U","PERIAPSIS":"538.027","REF_FRAME":"TEME","APOAPSIS":"541.450","INCLINATION":"53.2180","BSTAR":"0.00001709600000","ELEMENT_SET_NO":"999","TLE_LINE2":"2 52542  53.2180 138.2052 0002474  43.8438 316.2750 15.08842282 29541","NORAD_CAT_ID":"52542","LAUNCH_DATE":"2022-05-13","FILE":"3665715","COUNTRY_CODE":"US","ECCENTRICITY":"0.00024740","REV_AT_EPOCH":"2954","TIME_SYSTEM":"UTC","RA_OF_ASC_NODE":"138.2052","ARG_OF_PERICENTER":"43.8438","EPHEMERIS_TYPE":"0","OBJECT_ID":"2022-051K","MEAN_ELEMENT_THEORY":"SGP4","OBJECT_TYPE":"PAYLOAD","CENTER_NAME":"EARTH","PERIOD":"95.437","MEAN_MOTION_DDOT":"0.0000000000000","MEAN_MOTION_DOT":"-0.00000016","EPOCH":"2022-11-20T18:34:11.051328","OBJECT_NAME":"STARLINK-3937","SEMIMAJOR_AXIS":"6917.873"},{"CENTER_NAME":"EARTH","MEAN_MOTION_DOT":"-0.00000207","MEAN_MOTION_DDOT":"0.0000000000000","EPOCH":"2022-11-20T18:50:04.993728","SEMIMAJOR_AXIS":"6917.901","OBJECT_NAME":"STARLINK-3926","PERIOD":"95.438","MEAN_ELEMENT_THEORY":"SGP4","OBJECT_TYPE":"PAYLOAD","RA_OF_ASC_NODE":"138.1555","OBJECT_ID":"2022-051L","EPHEMERIS_TYPE":"0","ARG_OF_PERICENTER":"50.8948","COUNTRY_CODE":"US","FILE":"3665715","TIME_SYSTEM":"UTC","ECCENTRICITY":"0.00019340","REV_AT_EPOCH":"2954","BSTAR":"0.00000508410000","ELEMENT_SET_NO":"999","TLE_LINE2":"2 52543  53.2152 138.1555 0001934  50.8948 309.2216 15.08833352 29549","LAUNCH_DATE":"2022-05-13","NORAD_CAT_ID":"52543","APOAPSIS":"541.104","REF_FRAME":"TEME","INCLINATION":"53.2152","TLE_LINE1":"1 52543U 22051L   22324.78478002 -.00000207  00000-0  50841-5 0  9991","CLASSIFICATION_TYPE":"U","GP_ID":"218362484","PERIAPSIS":"538.428","RCS_SIZE":"LARGE","MEAN_ANOMALY":"309.2216","SITE":"AFWTR","MEAN_MOTION":"15.08833352","DECAY_DATE":null},{"OBJECT_TYPE":"PAYLOAD","MEAN_ELEMENT_THEORY":"SGP4","EPOCH":"2022-11-20T19:18:33.615936","MEAN_MOTION_DDOT":"0.0000000000000","MEAN_MOTION_DOT":"-0.00000625","SEMIMAJOR_AXIS":"6917.880","OBJECT_NAME":"STARLINK-3944","PERIOD":"95.438","CENTER_NAME":"EARTH","TIME_SYSTEM":"UTC","ECCENTRICITY":"0.00027260","REV_AT_EPOCH":"2947","COUNTRY_CODE":"US","FILE":"3665715","OBJECT_ID":"2022-051M","ARG_OF_PERICENTER":"44.4637","EPHEMERIS_TYPE":"0","RA_OF_ASC_NODE":"143.0703","INCLINATION":"53.2165","APOAPSIS":"541.631","REF_FRAME":"TEME","LAUNCH_DATE":"2022-05-13","NORAD_CAT_ID":"52544","BSTAR":"-0.00002115400000","ELEMENT_SET_NO":"999","TLE_LINE2":"2 52544  53.2165 143.0703 0002726  44.4637 315.6574 15.08840017 29474","SITE":"AFWTR","MEAN_MOTION":"15.08840017","DECAY_DATE":null,"RCS_SIZE":"LARGE","MEAN_ANOMALY":"315.6574","PERIAPSIS":"537.860","TLE_LINE1":"1 52544U 22051M   22324.80455574 -.00000625  00000-0 -21154-4 0  9993","CLASSIFICATION_TYPE":"U","GP_ID":"218361233"},{"FILE":"3665715","COUNTRY_CODE":"US","REV_AT_EPOCH":"2954","ECCENTRICITY":"0.00028090","TIME_SYSTEM":"UTC","RA_OF_ASC_NODE":"138.1780","ARG_OF_PERICENTER":"36.1305","EPHEMERIS_TYPE":"0","OBJECT_ID":"2022-051N","MEAN_ELEMENT_THEORY":"SGP4","OBJECT_TYPE":"PAYLOAD","CENTER_NAME":"EARTH","PERIOD":"95.438","OBJECT_NAME":"STARLINK-3939","SEMIMAJOR_AXIS":"6917.897","MEAN_MOTION_DDOT":"0.0000000000000","EPOCH":"2022-11-20T18:44:46.658976","MEAN_MOTION_DOT":"-0.00000510","MEAN_ANOMALY":"323.9876","RCS_SIZE":"LARGE","DECAY_DATE":null,"MEAN_MOTION":"15.08834482","SITE":"AFWTR","GP_ID":"218361982","TLE_LINE1":"1 52545U 22051N   22324.78109559 -.00000510  00000-0 -13937-4 0  9993","CLASSIFICATION_TYPE":"U","PERIAPSIS":"537.819","REF_FRAME":"TEME","APOAPSIS":"541.705","INCLINATION":"53.2161","ELEMENT_SET_NO":"999","TLE_LINE2":"2 52545  53.2161 138.1780 0002809  36.1305 323.9876 15.08834482 29547","BSTAR":"-0.00001393700000","NORAD_CAT_ID":"52545","LAUNCH_DATE":"2022-05-13"},{"PERIAPSIS":"538.004","TLE_LINE1":"1 52546U 22051P   22324.76733142  .00000113  00000-0  25238-4 0  9997","CLASSIFICATION_TYPE":"U","GP_ID":"218362234","MEAN_MOTION":"15.08842493","SITE":"AFWTR","DECAY_DATE":null,"MEAN_ANOMALY":"313.6740","RCS_SIZE":"LARGE","LAUNCH_DATE":"2022-05-13","NORAD_CAT_ID":"52546","ELEMENT_SET_NO":"999","TLE_LINE2":"2 52546  53.2169 138.2372 0002506  46.4460 313.6740 15.08842493 29541","BSTAR":"0.00002523800000","INCLINATION":"53.2169","APOAPSIS":"541.471","REF_FRAME":"TEME","OBJECT_ID":"2022-051P","EPHEMERIS_TYPE":"0","ARG_OF_PERICENTER":"46.4460","RA_OF_ASC_NODE":"138.2372","TIME_SYSTEM":"UTC","REV_AT_EPOCH":"2954","ECCENTRICITY":"0.00025060","COUNTRY_CODE":"US","FILE":"3665715","SEMIMAJOR_AXIS":"6917.873","OBJECT_NAME":"STARLINK-3948","MEAN_MOTION_DOT":"0.00000113","MEAN_MOTION_DDOT":"0.0000000000000","EPOCH":"2022-11-20T18:24:57.434688","PERIOD":"95.437","CENTER_NAME":"EARTH","OBJECT_TYPE":"PAYLOAD","MEAN_ELEMENT_THEORY":"SGP4"},{"DECAY_DATE":null,"SITE":"AFWTR","MEAN_MOTION":"15.08845626","RCS_SIZE":"LARGE","MEAN_ANOMALY":"313.8555","PERIAPSIS":"538.098","GP_ID":"218362984","CLASSIFICATION_TYPE":"U","TLE_LINE1":"1 52547U 22051Q   22324.87447387  .00002394  00000-0  16846-3 0  9990","INCLINATION":"53.2155","REF_FRAME":"TEME","APOAPSIS":"541.359","NORAD_CAT_ID":"52547","LAUNCH_DATE":"2022-05-13","BSTAR":"0.00016846000000","TLE_LINE2":"2 52547  53.2155 142.7545 0002357  46.2632 313.8555 15.08845626 29482","ELEMENT_SET_NO":"999","ECCENTRICITY":"0.00023570","REV_AT_EPOCH":"2948","TIME_SYSTEM":"UTC","FILE":"3665715","COUNTRY_CODE":"US","ARG_OF_PERICENTER":"46.2632","EPHEMERIS_TYPE":"0","OBJECT_ID":"2022-051Q","RA_OF_ASC_NODE":"142.7545","OBJECT_TYPE":"PAYLOAD","MEAN_ELEMENT_THEORY":"SGP4","PERIOD":"95.437","MEAN_MOTION_DOT":"0.00002394","MEAN_MOTION_DDOT":"0.0000000000000","EPOCH":"2022-11-20T20:59:14.542368","SEMIMAJOR_AXIS":"6917.863","OBJECT_NAME":"STARLINK-3869","CENTER_NAME":"EARTH"},{"EPHEMERIS_TYPE":"0","ARG_OF_PERICENTER":"52.5242","OBJECT_ID":"2022-051R","RA_OF_ASC_NODE":"138.3018","REV_AT_EPOCH":"2954","ECCENTRICITY":"0.00022420","TIME_SYSTEM":"UTC","FILE":"3665715","COUNTRY_CODE":"US","PERIOD":"95.438","OBJECT_NAME":"STARLINK-3931","SEMIMAJOR_AXIS":"6917.882","EPOCH":"2022-11-20T18:02:23.037792","MEAN_MOTION_DDOT":"0.0000000000000","MEAN_MOTION_DOT":"0.00000192","CENTER_NAME":"EARTH","OBJECT_TYPE":"PAYLOAD","MEAN_ELEMENT_THEORY":"SGP4","PERIAPSIS":"538.196","GP_ID":"218361732","TLE_LINE1":"1 52548U 22051R   22324.75165553  .00000192  00000-0  30158-4 0  9997","CLASSIFICATION_TYPE":"U","DECAY_DATE":null,"MEAN_MOTION":"15.08839372","SITE":"AFWTR","MEAN_ANOMALY":"307.5954","RCS_SIZE":"LARGE","NORAD_CAT_ID":"52548","LAUNCH_DATE":"2022-05-13","TLE_LINE2":"2 52548  53.2175 138.3018 0002242  52.5242 307.5954 15.08839372 29542","ELEMENT_SET_NO":"999","BSTAR":"0.00003015800000","INCLINATION":"53.2175","REF_FRAME":"TEME","APOAPSIS":"541.298"},{"NORAD_CAT_ID":"52549","LAUNCH_DATE":"2022-05-13","ELEMENT_SET_NO":"999","TLE_LINE2":"2 52549  53.2175 138.2133 0001531  55.2833 304.8303 15.08839486 29540","BSTAR":"0.00003724800000","INCLINATION":"53.2175","REF_FRAME":"TEME","APOAPSIS":"540.806","PERIAPSIS":"538.688","GP_ID":"218361483","TLE_LINE1":"1 52549U 22051S   22324.77005211  .00000305  00000-0  37248-4 0  9997","CLASSIFICATION_TYPE":"U","DECAY_DATE":null,"MEAN_MOTION":"15.08839486","SITE":"AFWTR","MEAN_ANOMALY":"304.8303","RCS_SIZE":"LARGE","PERIOD":"95.438","SEMIMAJOR_AXIS":"6917.882","OBJECT_NAME":"STARLINK-3935","EPOCH":"2022-11-20T18:28:52.502304","MEAN_MOTION_DDOT":"0.0000000000000","MEAN_MOTION_DOT":"0.00000305","CENTER_NAME":"EARTH","OBJECT_TYPE":"PAYLOAD","MEAN_ELEMENT_THEORY":"SGP4","EPHEMERIS_TYPE":"0","ARG_OF_PERICENTER":"55.2833","OBJECT_ID":"2022-051S","RA_OF_ASC_NODE":"138.2133","ECCENTRICITY":"0.00015310","REV_AT_EPOCH":"2954","TIME_SYSTEM":"UTC","FILE":"3665715","COUNTRY_CODE":"US"}];
